{
  "norad_id": 63641,
  "name": "STARLINK-33826",
  "history": [
    {
      "epoch": "2026-03-28T19:34:49.058112",
      "apogee_km": 483.55213087159336,
      "perigee_km": 482.35692872710297,
      "latitude_deg": 20.480722942750603,
      "longitude_deg": -97.57882432010956,
      "semi_major_axis_km": 6861.091529799348,
      "eccentricity": 8.71e-05,
      "inclination_deg": 42.9965,
      "raan_deg": 257.054,
      "arg_perigee_deg": 299.1747,
      "mean_anomaly_deg": 60.9018,
      "mean_motion_rev_day": 15.27611582
    }
  ]
}